OBJECT_NAME,OBJECT_ID,EPOCH,MEAN_MOTION,ECCENTRICITY,INCLINATION,RA_OF_ASC_NODE,ARG_OF_PERICENTER,MEAN_ANOMALY,EPHEMERIS_TYPE,CLASSIFICATION_TYPE,NORAD_CAT_ID,ELEMENT_SET_NO,REV_AT_EPOCH,BSTAR,MEAN_MOTION_DOT,MEAN_MOTION_DDOT
FORESAIL-1 PRIME,2025-276DS,2026-06-06T10:54:01.713600,15.18604799,.000363,97.4199,230.9223,125.6883,234.4690,0,U,66778,999,2877,.29553E-3,.6049E-4,0
